[{"OBJECT_NAME":"STARLINK-35595","OBJECT_ID":"2025-236R","EPOCH":"2026-03-09T12:08:38.944320","MEAN_MOTION":15.30193079,"ECCENTRICITY":0.00012692,"INCLINATION":53.1592,"RA_OF_ASC_NODE":104.9251,"ARG_OF_PERICENTER":91.371,"MEAN_ANOMALY":268.7436,"EPHEMERIS_TYPE":0,"CLASSIFICATION_TYPE":"U","NORAD_CAT_ID":66101,"ELEMENT_SET_NO":999,"REV_AT_EPOCH":2285,"BSTAR":0.0010134972,"MEAN_MOTION_DOT":0.00029772,"MEAN_MOTION_DDOT":0},{"OBJECT_NAME":"NOAA 16 DEB","OBJECT_ID":"2000-055BK","EPOCH":"2026-03-09T02:17:10.174560","MEAN_MOTION":15.30191008,"ECCENTRICITY":0.00052528,"INCLINATION":98.9831,"RA_OF_ASC_NODE":305.6383,"ARG_OF_PERICENTER":26.64,"MEAN_ANOMALY":333.5104,"EPHEMERIS_TYPE":0,"CLASSIFICATION_TYPE":"U","NORAD_CAT_ID":41128,"ELEMENT_SET_NO":999,"REV_AT_EPOCH":53406,"BSTAR":0.017668961,"MEAN_MOTION_DOT":0.00549039,"MEAN_MOTION_DDOT":0}]
